ONEWEB-0685             
1 54679U 22166AP  25078.23283031  .00000073  00000+0  14570-3 0  9991
2 54679  87.9331 334.6941 0001909  86.5886 273.5466 13.21826522111316
ONEWEB-0712             
1 54680U 22166AQ  25078.59819052  .00000061  00000+0  12695-3 0  9993
2 54680  87.9083 319.3828 0002288  81.8838 278.2553 13.16592764112246
ONEWEB-0714             
1 54681U 22166AR  25078.23912188  .00000007  00000+0 -14377-4 0  9990
2 54681  87.9334 334.6833 0001862  86.9359 273.1988 13.21829381111433
ONEWEB-0532             
1 55140U 23004A   25078.55537077  .00000038  00000+0  65411-4 0  9996
2 55140  87.9001  96.4196 0001535 101.9319 258.1985 13.17651129107715
ONEWEB-0533             
1 55141U 23004B   25078.55026666  .00000029  00000+0  45111-4 0  9999
2 55141  87.8810  81.1342 0001964  91.5115 268.6239 13.12443079108426
ONEWEB-0541             
1 55142U 23004C   25078.52985498  .00000483  00000+0  13270-2 0  9997
2 55142  87.8814 111.6878 0001918  95.0932 265.0415 13.11416815106364
ONEWEB-0543             
1 55143U 23004D   25078.51228420  .00000152  00000+0  35295-3 0  9997
2 55143  87.9062  65.9274 0002224  84.8716 275.2670 13.18686656109772
ONEWEB-0544             
1 55144U 23004E   25078.50596043  .00000025  00000+0  30341-4 0  9993
2 55144  87.9064  65.9168 0001874  81.2287 278.9057 13.18686981109771
